213P/Van Ness,e,10.3807,311.3045,5.7803,3.345817,0.1610463,0.40808301,28.0485,05/04.0/2024,2000,g 10.5,4.0
# From MPC 76570
213P-B/Van Ness,e,10.3798,5.7369,311.3566,3.346126,0.1610240,0.40823746,27.8992,05/04.0/2024,2000,g 17.0,4.0
# From MPC 76570
213P-C/Van Ness,e,10.3773,5.7183,311.3580,3.345483,0.1610704,0.40807488,28.1757,05/04.0/2024,2000,g 17.5,4.0
# From MPC 92986
214P/LINEAR,e,15.1858,348.2210,190.1435,3.617740,0.1432347,0.48590440,83.9175,05/04.0/2024,2000,g 13.0,4.0
# From MPEC 2024-F91
215P/NEAT,e,10.5765,56.6731,262.4010,4.333657,0.1092502,0.16538139,178.0006,05/04.0/2024,2000,g 11.0,4.0
# From MPEC 2024-H50
216P/LINEAR,e,9.0629,359.7985,151.7350,3.858492,0.1300402,0.44872887,15.3603,05/04.0/2024,2000,g 13.0,4.0
# From MPEC 2023-J29
217P/LINEAR,e,12.8636,125.3810,247.0137,3.946418,0.1257186,0.68923419,311.4847,05/04.0/2024,2000,g 12.0,4.0
# From MPEC 2022-K19
218P/LINEAR,e,2.7265,175.6509,59.9575,3.079161,0.1824129,0.62776486,237.8477,05/04.0/2024,2000,g 16.0,4.0
# From MPEC 2024-F91
219P/LINEAR,e,11.5400,230.9531,107.6347,3.645377,0.1416089,0.35401422,11.3494,05/04.0/2024,2000,g 11.0,4.0
# From MPEC 2024-A43
220P/McNaught,e,8.1236,150.1038,180.6119,3.119032,0.1789264,0.50073457,222.0469,05/04.0/2024,2000,g 15.0,4.0
# From MPEC 2022-UY9
221P/LINEAR,e,11.5168,229.5945,39.4344,3.435122,0.1548071,0.50113408,133.7810,05/04.0/2024,2000,g 14.5,4.0
# From MPC 92277
222P/LINEAR,e,5.0961,6.7845,346.2845,2.897568,0.1998268,0.71469216,358.2228,05/04.0/2024,2000,g 20.0,4.0
# From MPEC 2023-A50
223P/Skiff,e,27.0116,346.7396,37.9378,4.158261,0.1162349,0.41652658,223.2761,05/04.0/2024,2000,g 12.0,4.0
# From MPEC 2023-BF4
224P/LINEAR-NEAT,e,13.3054,40.0383,16.7549,3.445579,0.1541029,0.40586397,89.6658,05/04.0/2024,2000,g 15.5,4.0
# From MPEC 2024-F91
225P/LINEAR,e,21.3660,14.2018,3.9004,3.647406,0.1414907,0.63843434,38.2000,05/04.0/2024,2000,g 18.0,4.0
# From MPEC 2024-H50
226P/Pigott-LINEAR-Kowalski,e,44.0458,54.0120,341.0449,3.767083,0.1348020,0.52917845,17.3655,05/04.0/2024,2000,g 12.5,4.0
# From MPEC 2024-H91
227P/Catalina-LINEAR,e,7.5086,36.8084,105.5709,3.436058,0.1547438,0.52747620,8.7815,05/04.0/2024,2000,g 16.5,2.0
# From MPEC 2022-HC2
228P/LINEAR,e,7.9135,30.9745,114.7372,4.164360,0.1159796,0.17682903,176.0717,05/04.0/2024,2000,g 14.1,4.0
# From MPC106349
229P/Gibbs,e,26.1000,157.9342,224.1262,3.923809,0.1268067,0.37796177,321.2371,05/04.0/2024,2000,g 13.0,4.0
# From MPEC 2023-KD6
230P/LINEAR,e,15.4691,106.9459,313.5288,3.454182,0.1535275,0.54566554,119.2058,05/04.0/2024,2000,g 13.0,4.0
# From MPEC 2023-SQ0
231P/LINEAR-NEAT,e,12.2741,132.8609,44.0454,4.054860,0.1207092,0.24070246,216.4451,05/04.0/2024,2000,g 14.5,2.0
# From MPC112394
232P/Hill,e,14.6442,56.0288,53.2197,4.472237,0.1042118,0.33562793,193.1770,05/04.0/2024,2000,g 11.5,4.0
# From MPEC 2021-N06
233P/La Sagra,e,11.2889,74.9012,26.9873,3.027266,0.1871234,0.41275151,245.0710,05/04.0/2024,2000,g 15.0,4.0
# From MPEC 2024-DC6
234P/LINEAR,e,11.5356,179.5668,357.4200,3.795814,0.1332744,0.25684387,336.9996,05/04.0/2024,2000,g 12.0,4.0
# From MPC110497
235P/LINEAR,e,9.6577,203.9693,347.9335,3.506123,0.1501286,0.40775734,266.9043,05/04.0/2024,2000,g 12.0,4.0
# From MPEC 2023-J29
236P/LINEAR,e,16.3557,245.5693,119.3972,3.725751,0.1370514,0.50929773,322.2062,05/04.0/2024,2000,g 14.0,4.0
# From MPEC 2024-DC6
237P/LINEAR,e,14.0171,245.3542,25.3159,3.511176,0.1498046,0.43387268,53.2167,05/04.0/2024,2000,g 14.5,2.0
# From MPEC 2023-UR6
238P/Read,e,1.2640,51.6348,324.2495,3.166113,0.1749502,0.25113079,122.2226,05/04.0/2024,2000,g 14.5,4.0
# From MPEC 2021-F20
239P/LINEAR,e,11.3079,255.9475,220.3434,4.465547,0.1044461,0.63107001,202.7134,05/04.0/2024,2000,g 17.5,2.0
# From MPEC 2023-CD7
240P/NEAT,e,23.5370,74.9161,352.0128,3.861904,0.1298679,0.45031122,282.7422,05/04.0/2024,2000,g 11.0,4.0
# From MPEC 2022-J42
241P/LINEAR,e,21.0955,305.4620,111.5228,4.925068,0.0901749,0.61045098,91.3286,05/04.0/2024,2000,g 13.5,4.0
# From MPEC 2024-BE0
242P/Spahr,e,32.4567,180.3578,244.8644,5.529904,0.0757928,0.28179570,342.3199,05/04.0/2024,2000,g  8.0,4.0
# From MPEC 2022-K19
243P/NEAT,e,7.6436,87.6490,283.6622,3.828478,0.1315724,0.36056413,272.8595,05/04.0/2024,2000,g 12.5,4.0
# From MPEC 2024-GJ3
244P/Scotti,e,2.2587,354.0085,93.2910,4.900716,0.0908479,0.19980515,48.3576,05/04.0/2024,2000,g  9.0,4.0
# From MPEC 2022-CN4
245P/WISE,e,21.1761,316.8899,316.5554,4.050198,0.1209176,0.45568389,275.7955,05/04.0/2024,2000,g 14.0,4.0
# From MPEC 2024-C04
246P/NEAT,e,17.2281,74.7765,183.1086,4.101209,0.1186687,0.27815075,138.3387,05/04.0/2024,2000,g 10.5,4.0
# From MPEC 2021-F20
247P/LINEAR,e,13.6589,54.0091,47.4422,3.965697,0.1248029,0.62532800,247.0481,05/04.0/2024,2000,g 16.5,2.0
# From MPC 75730
248P/Gibbs,e,6.3513,207.8168,209.9314,5.985347,0.0673085,0.63935485,326.4226,05/04.0/2024,2000,g 14.0,4.0
# From MPEC 2022-YN2
249P/LINEAR,e,8.3854,239.0444,65.7515,2.764522,0.2144242,0.81936885,301.3136,05/04.0/2024,2000,g 15.5,4.0
# From MPC110497
250P/Larson,e,13.1564,73.2873,45.9109,3.775692,0.1343412,0.39872737,309.1888,05/04.0/2024,2000,g 14.5,4.0
# From MPEC 2024-H91
251P/LINEAR,e,23.3870,219.3413,31.2141,3.513611,0.1496489,0.50442318,12.0864,05/04.0/2024,2000,g 16.5,2.0
# From MPEC 2021-S45
252P/LINEAR,e,10.4161,190.9076,343.3852,3.051247,0.1849217,0.67082462,190.2228,05/04.0/2024,2000,g 17.5,4.0
# From MPEC 2020-FB5
253P/PANSTARRS,e,4.9454,146.9088,230.7637,3.462177,0.1529960,0.41456829,333.9957,05/04.0/2024,2000,g 14.5,4.0
# From MPEC 2024-EF7
254P/McNaught,e,32.5490,129.1871,219.7406,4.618443,0.0993026,0.31905040,130.2911,05/04.0/2024,2000,g 11.0,4.0
# From NK 2214
255P/Levy,e,13.4010,275.6377,186.0329,2.942444,0.1952728,0.71186658,118.0031,05/04.0/2024,2000,g  9.0,4.0
# From MPEC 2023_O39
256P/LINEAR,e,27.6238,81.3281,124.1389,4.637504,0.0986910,0.41785956,41.3474,05/04.0/2024,2000,g 14.0,2.0
# From MPEC 2023-A50
257P/Catalina,e,20.2193,207.7161,117.7818,3.766318,0.1348430,0.42924812,179.6484,05/04.0/2024,2000,g 11.5,4.0
# From MPEC 2021-U31
258P/PANSTARRS,e,6.7497,126.2322,25.6073,4.391020,0.1071164,0.20896602,151.7687,05/04.0/2024,2000,g 13.0,4.0
# From MPC106349
259P/Garradd,e,15.8985,51.3710,257.5411,2.728811,0.2186472,0.33881226,178.4475,05/04.0/2024,2000,g 15.5,4.0
# From MPEC 2022-O01
260P/McNaught,e,15.0494,349.3343,18.4728,3.623439,0.1428968,0.60909859,242.4345,05/04.0/2024,2000,g 13.5,4.0
# From MPEC 2021-J28
261P/Larson,e,6.0722,291.0628,67.3477,3.490326,0.1511489,0.42305726,268.9707,05/04.0/2024,2000,g 14.0,4.0
# From MPC 82322
262P/McNaught-Russell,e,29.2764,217.8887,171.0617,6.869731,0.0547387,0.81633348,227.8366,05/04.0/2024,2000,g 13.5,4.0
# From MPEC 2023_O39
263P/Gibbs,e,11.5242,105.5015,35.0311,3.041379,0.1858225,0.59371428,85.3624,05/04.0/2024,2000,g 18.0,4.0
# From MPC114608
264P/Larsen,e,25.6117,219.5660,341.7772,4.001595,0.1231273,0.34627302,231.4510,05/04.0/2024,2000,g 13.0,4.0
# From MPC 79870
265P/LINEAR,e,14.3536,342.9472,33.5193,4.259108,0.1121311,0.64729012,132.2916,05/04.0/2024,2000,g 14.5,4.0
# From MPEC 2021-F20
266P/Christensen,e,3.4273,4.9637,97.7062,3.529507,0.1486391,0.34062041,219.1877,05/04.0/2024,2000,g 14.7,4.0
# From MPC114608
267P/LONEOS,e,6.1428,228.5991,114.2348,3.209000,0.1714547,0.61422466,1.5750,05/04.0/2024,2000,g 19.5,4.0
# From MPC 92277
268P/Bernardi,e,15.6339,124.7435,359.9668,4.634636,0.0987826,0.47283259,337.5087,05/04.0/2024,2000,g 14.0,4.0
# From MPEC 2023-J29
269P/Jedicke,e,7.0846,241.7728,225.6656,7.062268,0.0525155,0.43285015,183.7700,05/04.0/2024,2000,g 10.0,4.0
# From MPC 88332
270P/Gehrels,e,2.9252,223.0392,209.8376,6.652883,0.0574367,0.46997823,228.1833,05/04.0/2024,2000,g  8.0,4.0
# From MPC 92277
271P/van Houten-Lemmon,e,6.8703,9.3227,36.5129,7.032845,0.0528454,0.39616288,208.0046,05/04.0/2024,2000,g 11.0,4.0
# From MPEC 2023-D41
272P/NEAT,e,18.0769,109.4449,27.8828,4.461837,0.1045763,0.45516651,68.6972,05/04.0/2024,2000,g 16.0,2.0
# From MPC 82723
273P/Pons-Gambart,e,136.5545,320.4044,20.2064,31.99098,0.0054471,0.97439873,0.0000,12/22.1409/2012,2000,g 11.5,4.0
# From MPEC 2024-GJ3
274P/Tombaugh-Tenagra,e,15.8197,81.3184,38.4721,4.377972,0.1075956,0.43995762,81.3797,05/04.0/2024,2000,g 13.0,4.0
# From MPC 81862
275P/Hermann,e,21.2581,348.6932,173.9214,5.789328,0.0707558,0.71337568,295.7936,05/04.0/2024,2000,g 17.0,4.0
# From MPEC 2024-BE0
276P/Vorobjov,e,14.8113,211.3410,199.3224,5.337701,0.0799232,0.26961149,342.3161,05/04.0/2024,2000,g 11.5,4.0
# From MPEC 2021-F20
277P/LINEAR,e,16.7880,276.2694,152.3935,3.853540,0.1302910,0.50645240,158.9496,05/04.0/2024,2000,g 15.1,4.0
# From MPEC 2021-S45
278P/McNaught,e,6.6730,15.1281,237.5570,3.669729,0.1402016,0.44093466,186.2286,05/04.0/2024,2000,g 14.0,4.0
# From MPEC 2024-A43
279P/LaSagra,e,5.0493,346.1483,5.7603,3.572644,0.1459552,0.39932091,55.5846,05/04.0/2024,2000,g 14.0,4.0
# From MPEC 2023-J95
280P/Larsen,e,11.7734,131.3753,104.7141,4.527423,0.1023122,0.41689359,27.9718,05/04.0/2024,2000,g 12.5,4.0
# From MPEC 2023-D41
281P/MOSS,e,4.7176,87.1693,26.7812,4.882694,0.0913513,0.17362430,41.7041,05/04.0/2024,2000,g 11.0,4.0
# From MPC133426
282P/,e,5.8122,217.6155,9.2284,4.236877,0.1130148,0.18768178,104.3357,05/04.0/2024,2000,g 13.5,2.0
# From MPEC 2022-K19
283P/Spacewatch,e,14.4604,161.1211,22.1692,4.133367,0.1172865,0.48445040,113.6856,05/04.0/2024,2000,g 16.0,2.0
# From MPEC 2024-D33
284P/McNaught,e,11.8572,144.2689,202.4746,3.677610,0.1397512,0.37483769,134.8271,05/04.0/2024,2000,g 13.0,4.0
# From MPEC 2023-B57
285P/LINEAR,e,25.0372,185.5042,178.3899,4.506028,0.1030418,0.61842030,49.2391,05/04.0/2024,2000,g 15.0,4.0
# From MPEC 2024-BE0
286P/Christensen,e,17.1062,283.6392,24.6926,4.101550,0.1186539,0.42705575,85.7926,05/04.0/2024,2000,g 14.0,4.0
# From MPEC 2024-GJ3
287P/Christensen,e,16.3154,139.0164,189.3204,4.168700,0.1157986,0.27194931,34.9816,05/04.0/2024,2000,g 13.5,4.0
# From MPC133426
288P/,e,3.2383,83.1064,280.2930,3.049180,0.1851099,0.20012694,147.0512,05/04.0/2024,2000,g 16.0,2.0
# From MPEC 2023-HD1
